FENGYUN 1C DEB          
1 30222U 99025WF  17345.96967532  .00000127  00000-0  11031-3 0  9990
2 30222  99.1808 359.0462 0037059 231.1160 185.1297 14.03294423558398
